CTC1_L_00224016-03
1 10062U 24717UU  26075.70032407  .00000000  00000+0  00000-0 0  9992
2 10062  65.0000 180.0000 0000000   0.0000   0.0000 13.29142335    15
CTC1_L_00224016-04
1 10063U 24662SC  26075.70032407  .00000000  00000+0  00000-0 0  9992
2 10063  65.0000 180.0000 0000000   0.0000  90.0000 13.29142335    15
CTC1_L_00224017-01
1 10064U 23286VL  26075.70032407  .00000000  00000+0  00000-0 0  9994
2 10064  65.0000 192.0000 0000000   0.0000 192.0000 13.29142335    12
CTC1_L_00224017-02
1 10065U 24232OA  26075.70032407  .00000000  00000+0  00000-0 0  9997
2 10065  65.0000 192.0000 0000000   0.0000 282.0000 13.29142335    13
CTC1_L_00224017-03
1 10066U 26979JH  26075.70032407  .00000000  00000+0  00000-0 0  9998
2 10066  65.0000 192.0000 0000000   0.0000  12.0000 13.29142335    15
CTC1_L_00224017-04
1 10067U 23128BA  26075.70032407  .00000000  00000+0  00000-0 0  9992
2 10067  65.0000 192.0000 0000000   0.0000 102.0000 13.29142335    16
CTC1_L_00224018-01
1 10068U 23195CI  26075.70032407  .00000000  00000+0  00000-0 0  9997
2 10068  65.0000 204.0000 0000000   0.0000 204.0000 13.29142335    14
CTC1_L_00224018-02
1 10069U 22190FK  26075.70032407  .00000000  00000+0  00000-0 0  9992
2 10069  65.0000 204.0000 0000000   0.0000 294.0000 13.29142335    14
CTC1_L_00224018-03
1 10070U 22535XT  26075.70032407  .00000000  00000+0  00000-0 0  9997
2 10070  65.0000 204.0000 0000000   0.0000  24.0000 13.29142335    17
CTC1_L_00224018-04
1 10071U 24574KV  26075.70032407  .00000000  00000+0  00000-0 0  9993
2 10071  65.0000 204.0000 0000000   0.0000 114.0000 13.29142335    18
CTC1_L_00224019-01
1 10072U 24982QX  26075.70032407  .00000000  00000+0  00000-0 0  9997
2 10072  65.0000 216.0000 0000000   0.0000 216.0000 13.29142335    15
CTC1_L_00224019-02
1 10073U 25133DD  26075.70032407  .00000000  00000+0  00000-0 0  9997
2 10073  65.0000 216.0000 0000000   0.0000 306.0000 13.29142335    16
CTC1_L_00224019-03
1 10074U 24164XP  26075.70032407  .00000000  00000+0  00000-0 0  9991
2 10074  65.0000 216.0000 0000000   0.0000  36.0000 13.29142335    17
CTC1_L_00224019-04
1 10075U 22223TO  26075.70032407  .00000000  00000+0  00000-0 0  9996
2 10075  65.0000 216.0000 0000000   0.0000 126.0000 13.29142335    18
CTC1_L_00224020-01
1 10076U 26810JT  26075.70032407  .00000000  00000+0  00000-0 0  9993
2 10076  65.0000 228.0000 0000000   0.0000 228.0000 13.29142335    15
CTC1_L_00224020-02
1 10077U 22855FL  26075.70032407  .00000000  00000+0  00000-0 0  9999
2 10077  65.0000 228.0000 0000000   0.0000 318.0000 13.29142335    16
CTC1_L_00224020-03
1 10078U 25033SR  26075.70032407  .00000000  00000+0  00000-0 0  9991
2 10078  65.0000 228.0000 0000000   0.0000  48.0000 13.29142335    17
CTC1_L_00224020-04
1 10079U 23124PM  26075.70032407  .00000000  00000+0  00000-0 0  9991
2 10079  65.0000 228.0000 0000000   0.0000 138.0000 13.29142335    18
CTC1_L_00224021-01
1 10080U 23278OH  26075.70032407  .00000000  00000+0  00000-0 0  9993
2 10080  65.0000 240.0000 0000000   0.0000 240.0000 13.29142335    18
CTC1_L_00224021-02
1 10081U 23671IO  26075.70032407  .00000000  00000+0  00000-0 0  9991
2 10081  65.0000 240.0000 0000000   0.0000 330.0000 13.29142335    19
CTC1_L_00224021-03
1 10082U 26046IZ  26075.70032407  .00000000  00000+0  00000-0 0  9991
2 10082  65.0000 240.0000 0000000   0.0000  60.0000 13.29142335    10
CTC1_L_00224021-04
1 10083U 25995GN  26075.70032407  .00000000  00000+0  00000-0 0  9994
2 10083  65.0000 240.0000 0000000   0.0000 150.0000 13.29142335    11
CTC1_L_00224022-01
1 10084U 23952MX  26075.70032407  .00000000  00000+0  00000-0 0  9996
2 10084  65.0000 252.0000 0000000   0.0000 252.0000 13.29142335    18
CTC1_L_00224022-02
1 10085U 26954OV  26075.70032407  .00000000  00000+0  00000-0 0  9992
2 10085  65.0000 252.0000 0000000   0.0000 342.0000 13.29142335    19
CTC1_L_00224022-03
1 10086U 24514DQ  26075.70032407  .00000000  00000+0  00000-0 0  9993
2 10086  65.0000 252.0000 0000000   0.0000  72.0000 13.29142335    10
CTC1_L_00224022-04
1 10087U 26776QC  26075.70032407  .00000000  00000+0  00000-0 0  9996
2 10087  65.0000 252.0000 0000000   0.0000 162.0000 13.29142335    11
CTC1_L_00224023-01
1 10088U 26155XJ  26075.70032407  .00000000  00000+0  00000-0 0  9998
2 10088  65.0000 264.0000 0000000   0.0000 264.0000 13.29142335    18
CTC1_L_00224023-02
1 10089U 25473EW  26075.70032407  .00000000  00000+0  00000-0 0  9991
2 10089  65.0000 264.0000 0000000   0.0000 354.0000 13.29142335    19
CTC1_L_00224023-03
1 10090U 25629TJ  26075.70032407  .00000000  00000+0  00000-0 0  9996
2 10090  65.0000 264.0000 0000000   0.0000  84.0000 13.29142335    11
CTC1_L_00224023-04
1 10091U 22653MI  26075.70032407  .00000000  00000+0  00000-0 0  9991
2 10091  65.0000 264.0000 0000000   0.0000 174.0000 13.29142335    12
CTC1_L_00224024-01
1 10092U 25067IZ  26075.70032407  .00000000  00000+0  00000-0 0  9994
2 10092  65.0000 276.0000 0000000   0.0000 276.0000 13.29142335    19
CTC1_L_00224024-02
1 10093U 25746SK  26075.70032407  .00000000  00000+0  00000-0 0  9999
2 10093  65.0000 276.0000 0000000   0.0000   6.0000 13.29142335    11
CTC1_L_00224024-03
1 10094U 25512LK  26075.70032407  .00000000  00000+0  00000-0 0  9991
2 10094  65.0000 276.0000 0000000   0.0000  96.0000 13.29142335    11
CTC1_L_00224024-04
1 10095U 25248YI  26075.70032407  .00000000  00000+0  00000-0 0  9998
2 10095  65.0000 276.0000 0000000   0.0000 186.0000 13.29142335    12
CTC1_L_00224025-01
1 10096U 22832XU  26075.70032407  .00000000  00000+0  00000-0 0  9995
2 10096  65.0000 288.0000 0000000   0.0000 288.0000 13.29142335    19
CTC1_L_00224025-02
1 10097U 24225M   26075.70032407  .00000000  00000+0  00000-0 0  9994
2 10097  65.0000 288.0000 0000000   0.0000  18.0000 13.29142335    11
CTC1_L_00224025-03
1 10098U 25593WE  26075.70032407  .00000000  00000+0  00000-0 0  9994
2 10098  65.0000 288.0000 0000000   0.0000 108.0000 13.29142335    12
CTC1_L_00224025-04
1 10099U 22739OR  26075.70032407  .00000000  00000+0  00000-0 0  9994
2 10099  65.0000 288.0000 0000000   0.0000 198.0000 13.29142335    12
CTC1_L_00224026-01
1 10100U 23380XU  26075.70032407  .00000000  00000+0  00000-0 0  9990
2 10100  65.0000 300.0000 0000000   0.0000 300.0000 13.29142335    15
CTC1_L_00224026-02
1 10101U 25889RD  26075.70032407  .00000000  00000+0  00000-0 0  9997
2 10101  65.0000 300.0000 0000000   0.0000  30.0000 13.29142335    16
CTC1_L_00224026-03
1 10102U 25663XT  26075.70032407  .00000000  00000+0  00000-0 0  9998
2 10102  65.0000 300.0000 0000000   0.0000 120.0000 13.29142335    17
CTC1_L_00224026-04
1 10103U 25016HF  26075.70032407  .00000000  00000+0  00000-0 0  9991
2 10103  65.0000 300.0000 0000000   0.0000 210.0000 13.29142335    18
CTC1_L_00224027-01
1 10104U 26820Z   26075.70032407  .00000000  00000+0  00000-0 0  9996
2 10104  65.0000 312.0000 0000000   0.0000 312.0000 13.29142335    15
CTC1_L_00224027-02
1 10105U 23160JF  26075.70032407  .00000000  00000+0  00000-0 0  9991
2 10105  65.0000 312.0000 0000000   0.0000  42.0000 13.29142335    16
CTC1_L_00224027-03
1 10106U 26787ZJ  26075.70032407  .00000000  00000+0  00000-0 0  9990
2 10106  65.0000 312.0000 0000000   0.0000 132.0000 13.29142335    17
CTC1_L_00224027-04
1 10107U 22894HX  26075.70032407  .00000000  00000+0  00000-0 0  9996
2 10107  65.0000 312.0000 0000000   0.0000 222.0000 13.29142335    18
CTC1_L_00224028-01
1 10108U 23164XM  26075.70032407  .00000000  00000+0  00000-0 0  9998
2 10108  65.0000 324.0000 0000000   0.0000 324.0000 13.29142335    15
CTC1_L_00224028-02
1 10109U 23570AE  26075.70032407  .00000000  00000+0  00000-0 0  9990
2 10109  65.0000 324.0000 0000000   0.0000  54.0000 13.29142335    16
CTC1_L_00224028-03
1 10110U 25036BJ  26075.70032407  .00000000  00000+0  00000-0 0  9991
2 10110  65.0000 324.0000 0000000   0.0000 144.0000 13.29142335    18
CTC1_L_00224028-04
1 10111U 23614ES  26075.70032407  .00000000  00000+0  00000-0 0  9992
2 10111  65.0000 324.0000 0000000   0.0000 234.0000 13.29142335    19
CTC1_L_00224029-01
1 10112U 25153DL  26075.70032407  .00000000  00000+0  00000-0 0  9993
2 10112  65.0000 336.0000 0000000   0.0000 336.0000 13.29142335    16
CTC1_L_00224029-02
1 10113U 25136EK  26075.70032407  .00000000  00000+0  00000-0 0  9995
2 10113  65.0000 336.0000 0000000   0.0000  66.0000 13.29142335    17
CTC1_L_00224029-03
1 10114U 24019UT  26075.70032407  .00000000  00000+0  00000-0 0  9995
2 10114  65.0000 336.0000 0000000   0.0000 156.0000 13.29142335    18
CTC1_L_00224029-04
1 10115U 25748GR  26075.70032407  .00000000  00000+0  00000-0 0  9996
2 10115  65.0000 336.0000 0000000   0.0000 246.0000 13.29142335    19
CTC1_L_00224030-01
1 10116U 23387IZ  26075.70032407  .00000000  00000+0  00000-0 0  9994
2 10116  65.0000 348.0000 0000000   0.0000 348.0000 13.29142335    16
CTC1_L_00224030-02
1 10117U 25213JY  26075.70032407  .00000000  00000+0  00000-0 0  9995
2 10117  65.0000 348.0000 0000000   0.0000  78.0000 13.29142335    17
CTC1_L_00224030-03
1 10118U 26400ZV  26075.70032407  .00000000  00000+0  00000-0 0  9995
2 10118  65.0000 348.0000 0000000   0.0000 168.0000 13.29142335    18
CTC1_L_00224030-04
1 10119U 23056ZS  26075.70032407  .00000000  00000+0  00000-0 0  9990
2 10119  65.0000 348.0000 0000000   0.0000 258.0000 13.29142335    19
